OBJECT_NAME,OBJECT_ID,EPOCH,MEAN_MOTION,ECCENTRICITY,INCLINATION,RA_OF_ASC_NODE,ARG_OF_PERICENTER,MEAN_ANOMALY,EPHEMERIS_TYPE,CLASSIFICATION_TYPE,NORAD_CAT_ID,ELEMENT_SET_NO,REV_AT_EPOCH,BSTAR,MEAN_MOTION_DOT,MEAN_MOTION_DDOT
COSMOS 2534 (758),2019-030A,2026-07-15T15:32:49.429248,2.13102164,.00135422,64.3704,191.6581,275.0675,98.1029,0,U,44299,999,5553,0,.53E-6,0
BEIDOU-3 IGSO-2 (C39),2019-035A,2026-07-15T07:05:30.557184,1.00257621,.00394781,55.2501,158.6158,216.6534,142.7647,0,U,44337,999,2594,0,-.14E-5,0
GPS BIII-2  (PRN 18),2019-056A,2026-07-14T13:04:18.319008,2.00569901,.00634076,55.6222,330.0556,198.1524,143.2875,0,U,44506,999,5061,0,-.94E-6,0
BEIDOU-3 M24 (C46),2019-061A,2026-07-15T03:56:11.113728,1.86229149,.00086268,54.3974,181.7844,359.5016,0.4715,0,U,44542,999,4631,0,.41E-6,0
BEIDOU-3 M23 (C45),2019-061B,2026-07-15T11:15:00.426816,1.86227585,.00059138,54.3958,181.7424,340.1411,135.5606,0,U,44543,999,4632,0,.4E-6,0
EUTELSAT 5 WEST B (EGNOS/PRN 121),2019-067A,2026-07-14T15:06:19.025568,1.00269913,.00030963,0.0701,333.5012,138.5371,42.0158,0,U,44624,999,2471,0,-.51E-6,0
BEIDOU-3 M22 (C44),2019-078A,2026-07-13T09:26:32.496288,1.86227300,.00057504,53.9106,298.9058,50.3045,309.7753,0,U,44793,999,4513,0,-.62E-6,0
BEIDOU-3 M21 (C43),2019-078B,2026-07-15T03:27:37.011168,1.86227652,.00034441,53.8818,298.8044,48.1201,311.9449,0,U,44794,999,4517,0,-.66E-6,0
COSMOS 2544 (759),2019-088A,2026-07-11T10:20:31.642656,2.13103002,.0012329,65.5782,72.9223,255.3827,104.5453,0,U,44850,999,5123,0,-.19E-6,0
BEIDOU-3 M19 (C41),2019-090A,2026-07-15T03:29:10.845024,1.86231024,.00168492,56.5835,61.8670,297.6358,260.7027,0,U,44864,999,4475,0,-.41E-6,0
BEIDOU-3 M20 (C42),2019-090B,2026-07-14T11:37:19.767648,1.86231148,.00143929,56.5841,61.9230,312.7381,252.0119,0,U,44865,999,4472,0,-.39E-6,0
BEIDOU-3 G2 (C60),2020-017A,2026-07-15T15:27:38.378016,1.00268971,.00019582,2.9203,47.7324,61.8347,135.8454,0,U,45344,999,2354,0,-.151E-5,0
COSMOS 2545 (760),2020-018A,2026-07-15T09:07:07.069152,2.13102376,.0009576,64.3368,311.4285,229.8153,130.1163,0,U,45358,999,4926,0,-.61E-6,0
BEIDOU-3 G3 (C61),2020-040A,2026-07-15T15:57:03.116160,1.00276278,.00022323,2.5148,67.4779,308.0988,267.6625,0,U,45807,999,2235,0,-.365E-5,0
GPS BIII-3  (PRN 23),2020-041A,2026-07-14T15:21:30.033216,2.00557744,.00651432,56.6877,27.8790,204.6636,142.7605,0,U,45854,999,4458,0,-.66E-6,0
GALAXY 30 (WAAS/PRN 135),2020-056C,2026-07-15T14:29:13.977600,1.00271927,.0001999,0.0141,59.9575,55.8237,269.9665,0,U,46114,999,2157,0,.27E-6,0
COSMOS 2547 (705K),2020-075A,2026-07-15T02:24:35.199360,2.13099926,.00094615,64.6014,191.5439,239.9161,119.9951,0,U,46805,999,4450,0,.57E-6,0
GPS BIII-4  (PRN 14),2020-078A,2026-07-15T10:31:54.317568,2.00564943,.00745578,53.9772,209.6325,207.8264,333.7468,0,U,46826,999,4207,0,.48E-6,0
GPS BIII-5  (PRN 11),2021-054A,2026-07-15T10:12:39.948768,2.00566999,.00264641,55.1594,331.3244,228.5424,129.7408,0,U,48859,999,3731,0,-.97E-6,0
QZS-1R (QZSS/PRN 196),2021-096A,2026-07-14T13:49:51.633120,1.00245239,.0754906,37.5157,79.1769,272.2285,280.2291,0,U,49336,999,1728,0,-.304E-5,0
GSAT0223 (GALILEO 27),2021-116A,2026-07-12T19:14:20.037984,1.70475864,.00024308,57.1512,340.9841,195.8611,164.1379,0,U,49809,999,2861,0,-.91E-6,0
GSAT0224 (GALILEO 28),2021-116B,2026-07-13T12:00:40.220064,1.70475939,.00018625,57.1519,340.9637,181.9105,359.6169,0,U,49810,999,2865,0,-.94E-6,0
COSMOS 2557 (706K),2022-075A,2026-07-15T06:20:56.681952,2.13102178,.00108427,64.2806,313.4964,271.2690,88.6188,0,U,52984,999,3131,0,-.64E-6,0
COSMOS 2559 (707K),2022-130A,2026-07-14T14:45:34.162272,2.13101643,.00130854,64.2533,313.6016,181.0015,179.0060,0,U,54031,999,2927,0,-.64E-6,0
COSMOS 2564 (761),2022-161A,2026-07-14T22:15:24.130368,2.13101973,.0012238,64.7437,191.7908,224.9723,134.9352,0,U,54377,999,2822,0,.59E-6,0
GPS BIII-6  (PRN 28),2023-009A,2026-07-15T03:04:46.954272,2.00569545,.00062458,55.1239,147.4206,321.9357,220.4571,0,U,55268,999,2580,0,.9E-7,0
BEIDOU-3 G4 (C62),2023-066A,2026-07-15T15:44:48.903648,1.00272332,.00049102,0.4601,339.0521,186.8874,143.8281,0,U,56564,999,1167,0,-.29E-5,0
NVS-01 (IRNSS-1J),2023-076A,2026-07-15T13:17:38.420160,1.00264565,.0003539,2.1006,243.0600,6.7613,12.3988,0,U,56759,999,1140,0,-.347E-5,0
COSMOS 2569 (703K),2023-114A,2026-07-15T09:48:52.554240,2.13103730,.00096709,65.3183,71.6690,295.9396,64.0381,0,U,57517,999,2286,0,-.11E-6,0
BEIDOU-3 M28 (C50),2023-207A,2026-07-14T16:25:13.554624,1.86229662,.00024302,55.7771,61.3755,4.8939,355.1823,0,U,58654,999,1735,0,-.42E-6,0
BEIDOU-3 M26 (C48),2023-207B,2026-07-13T22:40:23.820960,1.86229657,.00020159,55.7789,61.3870,324.6613,35.3983,0,U,58655,999,1732,0,-.41E-6,0
